[{"OBJECT_NAME":"STARLINK-31779","OBJECT_ID":"2024-090Q","EPOCH":"2026-03-08T09:20:29.452128","MEAN_MOTION":15.27581796,"ECCENTRICITY":0.00016863,"INCLINATION":43.0036,"RA_OF_ASC_NODE":190.6375,"ARG_OF_PERICENTER":284.6515,"MEAN_ANOMALY":75.415,"EPHEMERIS_TYPE":0,"CLASSIFICATION_TYPE":"U","NORAD_CAT_ID":59744,"ELEMENT_SET_NO":999,"REV_AT_EPOCH":10324,"BSTAR":2.8247859e-5,"MEAN_MOTION_DOT":5.15e-6,"MEAN_MOTION_DDOT":0},{"OBJECT_NAME":"ARCSTONE","OBJECT_ID":"2025-135N","EPOCH":"2026-03-09T21:21:29.017152","MEAN_MOTION":15.28638458,"ECCENTRICITY":0.00041199,"INCLINATION":97.4495,"RA_OF_ASC_NODE":185.9194,"ARG_OF_PERICENTER":166.7863,"MEAN_ANOMALY":193.3485,"EPHEMERIS_TYPE":0,"CLASSIFICATION_TYPE":"U","NORAD_CAT_ID":64540,"ELEMENT_SET_NO":999,"REV_AT_EPOCH":3984,"BSTAR":0.00094899777,"MEAN_MOTION_DOT":0.00026427,"MEAN_MOTION_DDOT":0}]
